ONEWEB-0326             
1 49195U 21083K   24011.93082883  .00000017  00000+0  96032-5 0  9993
2 49195  87.9234 152.0052 0000942  87.7317 272.3923 13.18684987113060
ONEWEB-0327             
1 49196U 21083L   24011.90476284 -.00000031  00000+0 -11143-3 0  9999
2 49196  87.9235 152.0217 0001086 102.8491 257.2763 13.18686543113083
ONEWEB-0328             
1 49197U 21083M   24011.82863483 -.00000298  00000+0 -85064-3 0  9990
2 49197  87.9003 136.8569 0001496  99.1900 260.9399 13.13470186114418
ONEWEB-0331             
1 49198U 21083N   24011.92450642  .00000030  00000+0  44538-4 0  9995
2 49198  87.9237 151.9983 0001346  93.8906 266.2380 13.18687050113072
ONEWEB-0333             
1 49199U 21083P   24011.90003358 -.00000200  00000+0 -58389-3 0  9991
2 49199  87.9016 136.8519 0001685 112.8384 247.2923 13.13469107114432
ONEWEB-0334             
1 49200U 21083Q   24012.22621299  .00000095  00000+0  20266-3 0  9993
2 49200  87.9183  91.0453 0002352 123.0888 237.0472 13.20770700121003
ONEWEB-0335             
1 49201U 21083R   24011.89527604 -.00000275  00000+0 -78861-3 0  9997
2 49201  87.9019 136.8418 0001546  96.7114 263.4191 13.13468620114441
ONEWEB-0336             
1 49202U 21083S   24011.86512845  .00000279  00000+0  72788-3 0  9990
2 49202  87.9015 136.8454 0001584 111.7806 248.3492 13.13468983114433
ONEWEB-0337             
1 49203U 21083T   24011.87451884  .00000214  00000+0  54979-3 0  9998
2 49203  87.9015 136.8424 0001594  99.9569 260.1740 13.13469989114430
ONEWEB-0338             
1 49204U 21083U   24011.77799169  .00000164  00000+0  37044-3 0  9997
2 49204  87.9187  91.1094 0002211 105.4880 254.6498 13.20772086119675
ONEWEB-0339             
1 49205U 21083V   24012.41900232  .00000158  00000+0  39844-3 0  9998
2 49205  87.9013 136.7324 0001568  95.8589 264.2719 13.13468206115787
ONEWEB-0340             
1 49206U 21083W   24012.44140871  .00000054  00000+0  10332-3 0  9993
2 49206  87.9236 151.8896 0001419  97.8070 262.3223 13.18684979114396
ONEWEB-0341             
1 49207U 21083X   24011.91817939 -.00000079  00000+0 -23189-3 0  9994
2 49207  87.9242 152.0081 0002019  81.2957 278.8403 13.18687255113055
ONEWEB-0342             
1 49208U 21083Y   24012.23884450  .00000160  00000+0  36223-3 0  9995
2 49208  87.9177  91.0407 0002039 107.9374 252.1981 13.20771048121005
ONEWEB-0343             
1 49209U 21083Z   24012.44459130  .00000143  00000+0  32963-3 0  9990
2 49209  87.9227 151.9211 0002094  89.4143 270.7229 13.18687033114460
ONEWEB-0344             
1 49210U 21083AA  24011.85242762  .00000104  00000+0  24995-3 0  9990
2 49210  87.9014 136.8576 0001346 101.9816 258.1464 13.13470443114414
ONEWEB-0345             
1 49211U 21083AB  24012.40312848  .00000363  00000+0  95863-3 0  9995
2 49211  87.9013 136.7285 0001470  80.8975 279.2321 13.13469780115799
ONEWEB-0346             
1 49212U 21083AC  24012.45404671  .00000061  00000+0  12185-3 0  9998
2 49212  87.9235 151.9112 0001047  92.5256 267.5996 13.18684799114405
ONEWEB-0348             
1 49213U 21083AD  24011.77483598  .00000127  00000+0  27949-3 0  9995
2 49213  87.9180  91.0921 0001433  77.6555 282.4739 13.20770500119676
ONEWEB-0350             
1 49214U 21083AE  24012.41265488  .00000238  00000+0  61778-3 0  9995
2 49214  87.9013 136.7177 0001438  88.0993 272.0301 13.13469621115823
ONEWEB-0351             
1 49215U 21083AF  24012.14730394  .00000297  00000+0  69777-3 0  9991
2 49215  87.9191  91.0214 0002284 101.6786 258.4604 13.20770870120995
ONEWEB-0352             
1 49216U 21083AG  24012.39360326 -.00003912  00000+0 -10749-1 0  9995
2 49216  87.9015 136.7480 0001889 111.0728 249.0603 13.13487626115911
ONEWEB-0354             
1 49217U 21083AH  24011.71801625  .00000059  00000+0  11229-3 0  9996
2 49217  87.9184  91.0873 0002111  95.0483 265.0892 13.20772739119660
ONEWEB-0355             
1 49218U 21083AJ  24011.89053852  .00002201  00000+0  59905-2 0  9990
2 49218  87.9017 136.8469 0001791  93.6881 266.4453 13.13459705114428
ONEWEB-0357             
1 49219U 21083AK  24011.71485681  .00000073  00000+0  14825-3 0  9999
2 49219  87.9187  91.1114 0001771  99.0302 261.1032 13.20772490119666
ONEWEB-0332             
1 49279U 21090A   24011.76137855 -.00000250  00000+0 -70821-3 0  9992
2 49279  87.8968 106.3702 0001922 119.4684 240.6638 13.14503292110994
ONEWEB-0347             
1 49280U 21090B   24012.23568737  .00000168  00000+0  38142-3 0  9990
2 49280  87.9187  91.0025 0002065 116.4192 243.7153 13.20771299113965
ONEWEB-0349             
1 49281U 21090C   24012.49452180  .00000053  00000+0  97391-4 0  9998
2 49281  87.9188  90.9479 0001691  93.6967 266.4360 13.20770819114070
ONEWEB-0353             
1 49282U 21090D   24011.75344351 -.00000130  00000+0 -38485-3 0  9993
2 49282  87.8969 106.3553 0001931 115.9383 244.1945 13.14504175110991
ONEWEB-0356             
1 49283U 21090E   24011.73537070  .00001131  00000+0  27485-2 0  9991
2 49283  87.9183  91.0957 0000846 112.9196 247.2027 13.20766335112680
ONEWEB-0358             
1 49284U 21090F   24012.14414174  .00000100  00000+0  21414-3 0  9999
2 49284  87.9188  90.9994 0001475  94.6003 265.5299 13.20775207114759
ONEWEB-0359             
1 49285U 21090G   24012.14100061  .00000075  00000+0  15137-3 0  9993
2 49285  87.9183  91.0205 0001912  88.5207 271.6145 13.20772739114728
ONEWEB-0360             
1 49286U 21090H   24012.28303205  .00000046  00000+0  81939-4 0  9996
2 49286  87.9188  90.9964 0001880 100.7034 259.4311 13.20770452114069
ONEWEB-0361             
1 49287U 21090J   24011.73379905  .00000112  00000+0  24441-3 0  9994
2 49287  87.9185  91.1001 0001638 105.1710 254.9604 13.20770989113152
ONEWEB-0362             
1 49288U 21090K   24011.81747700  .00000025  00000+0  30929-4 0  9998
2 49288  87.9210 121.6238 0002056 101.3463 258.7901 13.19725309109871
ONEWEB-0363             
1 49289U 21090L   24012.27987926  .00000080  00000+0  16596-3 0  9990
2 49289  87.9179  90.9863 0001315 103.7896 256.3384 13.20770715114060
ONEWEB-0364             
1 49290U 21090M   24011.71170877  .00000089  00000+0  18594-3 0  9998
2 49290  87.9190  91.1225 0001835 109.5508 250.5824 13.20772912114292
ONEWEB-0365             
1 49291U 21090N   24011.82695225 -.00000056  00000+0 -17265-3 0  9990
2 49291  87.9203 121.6128 0001816 105.6342 254.4991 13.19726028109388
ONEWEB-0366             
1 49292U 21090P   24011.75027386 -.00000233  00000+0 -66197-3 0  9995
2 49292  87.8975 106.3650 0001704 113.5507 246.5802 13.14503503110977
ONEWEB-0367             
1 49293U 21090Q   24012.27829927 -.00000011  00000+0 -57814-4 0  9996
2 49293  87.9186  90.9815 0001801 106.7863 253.3468 13.20771756114052
ONEWEB-0368             
1 49294U 21090R   24011.72117434  .00001127  00000+0  27408-2 0  9990
2 49294  87.9190  91.1208 0001576 135.3173 224.8088 13.20766821113831
ONEWEB-0369             
1 49295U 21090S   24012.35292803  .00000070  00000+0  14153-3 0  9995
2 49295  87.9209 121.5003 0001768 110.4381 249.6941 13.19724498110733
ONEWEB-0370             
1 49296U 21090T   24011.75747463 -.00000069  00000+0 -20174-3 0  9996
2 49296  87.9180  91.0893 0001743 103.5341 256.5986 13.20770230112726
ONEWEB-0371             
1 49297U 21090U   24012.36083165  .00000070  00000+0  14147-3 0  9990
2 49297  87.9208 121.4886 0001832 107.2898 252.8435 13.19730063110774
ONEWEB-0372             
1 49298U 21090V   24012.12507266  .00000017  00000+0  98433-5 0  9991
2 49298  87.9187  91.0235 0001950 107.1390 252.9957 13.20771159114045
ONEWEB-0373             
1 49299U 21090W   24011.77325431  .00000100  00000+0  21438-3 0  9996
2 49299  87.9187  91.1117 0001635 115.6640 244.4662 13.20770856113881
ONEWEB-0374             
1 49300U 21090X   24011.81370670 -.00000029  00000+0 -11186-3 0  9990
2 49300  87.8971 106.3384 0001654 111.3504 248.7802 13.14502718110986
ONEWEB-0375             
1 49301U 21090Y   24012.21516851  .00000036  00000+0  56155-4 0  9991
2 49301  87.9189  90.9987 0001057 100.9962 259.1291 13.20771024114735
ONEWEB-0376             
1 49302U 21090Z   24011.82852934 -.00000012  00000+0 -62717-4 0  9990
2 49302  87.9202 121.6133 0001984 112.5932 247.5411 13.19723989109411
ONEWEB-0377             
1 49303U 21090AA  24011.74655994 -.00000009  00000+0 -54559-4 0  9990
2 49303  87.9188  91.0836 0001819  94.1212 266.0130 13.20769382113371
ONEWEB-0378             
1 49304U 21090AB  24011.72196462  .00000063  00000+0  12199-3 0  9990
2 49304  87.9191  91.1021 0001611 113.3394 246.7909 13.20771287112632
ONEWEB-0379             
1 49305U 21090AC  24011.80894825 -.00000062  00000+0 -20182-3 0  9990
2 49305  87.8972 106.3416 0001689 110.7058 249.4253 13.14500814110986
ONEWEB-0380             
1 49306U 21090AD  24012.35608505  .00000033  00000+0  50680-4 0  9993
2 49306  87.9209 121.5029 0001661 102.4446 257.6873 13.19726471110735
ONEWEB-0381             
1 49307U 21090AE  24011.89478342  .00000021  00000+0  20044-4 0  9994
2 49307  87.9189  91.0604 0001763 100.8010 259.3321 13.20771113112706
ONEWEB-0382             
1 49308U 21090AF  24011.73063997  .00000022  00000+0  22934-4 0  9995
2 49308  87.9186  91.0911 0001280 111.0346 249.0924 13.20771310112675
ONEWEB-0383             
1 49309U 21090AG  24011.80261064  .00000041  00000+0  77093-4 0  9996
2 49309  87.8982 106.3345 0001619 117.3910 242.7384 13.14502609111015
ONEWEB-0384             
1 49310U 21090AH  24011.72747995  .00000076  00000+0  15410-3 0  9993
2 49310  87.9190  91.1006 0001185 114.7367 245.3890 13.20771928112683
ONEWEB-0385             
1 49311U 21090AJ  24011.72274717  .00000042  00000+0  70665-4 0  9998
2 49311  87.9190  91.1034 0001394 104.5933 255.5355 13.20771747112658
ONEWEB-0386             
1 49312U 21090AK  24012.19464228 -.00000004  00000+0 -42215-4 0  9999
2 49312  87.9182  91.0146 0001514 109.6161 250.5136 13.20773213114043
